ONEWEB-0665             
1 55825U 23029AF  25253.80609758 -.00000037  00000+0 -13378-3 0  9997
2 55825  87.9097 345.3549 0001568  94.8877 265.2432 13.14503678122707
ONEWEB-0666             
1 55826U 23029AG  25253.49108066  .00000087  00000+0  18139-3 0  9992
2 55826  87.9284 330.2475 0002444 112.4622 247.6771 13.20771421124236
ONEWEB-0667             
1 55827U 23029AH  25253.48476281  .00000149  00000+0  33422-3 0  9990
2 55827  87.9286 330.1765 0001762  93.6942 266.4393 13.20770556124223
ONEWEB-0669             
1 55828U 23029AJ  25253.48001962  .00000099  00000+0  21089-3 0  9991
2 55828  87.9291 330.2169 0002553  92.9547 267.1879 13.20769798124224
ONEWEB-0670             
1 55829U 23029AK  25253.63167266  .00000311  00000+0  80418-3 0  9997
2 55829  87.9095 345.4099 0001813  86.8256 273.3082 13.14502502122701
ONEWEB-0671             
1 55830U 23029AL  25253.83024997 -.00000007  00000+0 -49150-4 0  9997
2 55830  87.9282   0.5315 0001714  94.1455 265.9874 13.19724725122056
ONEWEB-0672             
1 55831U 23029AM  25253.47528962  .00000027  00000+0  35305-4 0  9996
2 55831  87.9283 330.2013 0002172 102.8636 257.2740 13.20773154124222
ONEWEB-0673             
1 55832U 23029AN  25253.80655701  .00000034  00000+0  52808-4 0  9991
2 55832  87.9293   0.5027 0001610 102.2057 257.9257 13.19724790122052
